[{"OBJECT_NAME":"PELICAN-6","OBJECT_ID":"2025-276AP","EPOCH":"2026-04-25T20:27:48.369024","MEAN_MOTION":15.28855711,"ECCENTRICITY":0.0002784,"INCLINATION":97.4157,"RA_OF_ASC_NODE":191.181,"ARG_OF_PERICENTER":62.6524,"MEAN_ANOMALY":297.4999,"EPHEMERIS_TYPE":0,"CLASSIFICATION_TYPE":"U","NORAD_CAT_ID":66703,"ELEMENT_SET_NO":999,"REV_AT_EPOCH":2253,"BSTAR":0.00025074,"MEAN_MOTION_DOT":6.956e-5,"MEAN_MOTION_DDOT":0},{"OBJECT_NAME":"FLOCK 4H-1","OBJECT_ID":"2025-276AQ","EPOCH":"2026-04-25T18:53:37.302720","MEAN_MOTION":15.19945082,"ECCENTRICITY":0.0003489,"INCLINATION":97.4192,"RA_OF_ASC_NODE":190.3207,"ARG_OF_PERICENTER":123.6076,"MEAN_ANOMALY":236.5492,"EPHEMERIS_TYPE":0,"CLASSIFICATION_TYPE":"U","NORAD_CAT_ID":66704,"ELEMENT_SET_NO":999,"REV_AT_EPOCH":2247,"BSTAR":0.00027675,"MEAN_MOTION_DOT":5.885e-5,"MEAN_MOTION_DDOT":0},{"OBJECT_NAME":"FLOCK 4H-2","OBJECT_ID":"2025-276AR","EPOCH":"2026-04-25T18:35:29.316768","MEAN_MOTION":15.20204271,"ECCENTRICITY":0.0002665,"INCLINATION":97.4189,"RA_OF_ASC_NODE":190.3296,"ARG_OF_PERICENTER":121.4533,"MEAN_ANOMALY":238.6963,"EPHEMERIS_TYPE":0,"CLASSIFICATION_TYPE":"U","NORAD_CAT_ID":66705,"ELEMENT_SET_NO":999,"REV_AT_EPOCH":2247,"BSTAR":0.00028599,"MEAN_MOTION_DOT":6.129e-5,"MEAN_MOTION_DDOT":0},{"OBJECT_NAME":"FLOCK 4H-3","OBJECT_ID":"2025-276AS","EPOCH":"2026-04-25T18:49:18.568416","MEAN_MOTION":15.19330122,"ECCENTRICITY":0.0004528,"INCLINATION":97.4256,"RA_OF_ASC_NODE":190.2973,"ARG_OF_PERICENTER":164.1422,"MEAN_ANOMALY":195.9956,"EPHEMERIS_TYPE":0,"CLASSIFICATION_TYPE":"U","NORAD_CAT_ID":66706,"ELEMENT_SET_NO":999,"REV_AT_EPOCH":2246,"BSTAR":0.00035851,"MEAN_MOTION_DOT":7.51e-5,"MEAN_MOTION_DDOT":0},{"OBJECT_NAME":"FLOCK 4H-4","OBJECT_ID":"2025-276AT","EPOCH":"2026-04-25T17:48:59.661216","MEAN_MOTION":15.19086807,"ECCENTRICITY":0.000509,"INCLINATION":97.4241,"RA_OF_ASC_NODE":190.169,"ARG_OF_PERICENTER":167.443,"MEAN_ANOMALY":192.6932,"EPHEMERIS_TYPE":0,"CLASSIFICATION_TYPE":"U","NORAD_CAT_ID":66707,"ELEMENT_SET_NO":999,"REV_AT_EPOCH":2245,"BSTAR":0.00031716,"MEAN_MOTION_DOT":6.589e-5,"MEAN_MOTION_DDOT":0},{"OBJECT_NAME":"FLOCK 4H-5","OBJECT_ID":"2025-276AU","EPOCH":"2026-04-25T17:11:36.763872","MEAN_MOTION":15.19996224,"ECCENTRICITY":0.0002219,"INCLINATION":97.4193,"RA_OF_ASC_NODE":190.2669,"ARG_OF_PERICENTER":116.5069,"MEAN_ANOMALY":243.6394,"EPHEMERIS_TYPE":0,"CLASSIFICATION_TYPE":"U","NORAD_CAT_ID":66708,"ELEMENT_SET_NO":999,"REV_AT_EPOCH":2246,"BSTAR":0.00029147,"MEAN_MOTION_DOT":6.21e-5,"MEAN_MOTION_DDOT":0},{"OBJECT_NAME":"FLOCK 4H-6","OBJECT_ID":"2025-276AV","EPOCH":"2026-04-25T16:18:50.469120","MEAN_MOTION":15.19661356,"ECCENTRICITY":0.0004355,"INCLINATION":97.4241,"RA_OF_ASC_NODE":190.2595,"ARG_OF_PERICENTER":138.6207,"MEAN_ANOMALY":221.5358,"EPHEMERIS_TYPE":0,"CLASSIFICATION_TYPE":"U","NORAD_CAT_ID":66709,"ELEMENT_SET_NO":999,"REV_AT_EPOCH":2245,"BSTAR":0.00031094,"MEAN_MOTION_DOT":6.567e-5,"MEAN_MOTION_DDOT":0},{"OBJECT_NAME":"FLOCK 4H-7","OBJECT_ID":"2025-276AW","EPOCH":"2026-04-25T15:34:05.145024","MEAN_MOTION":15.19405258,"ECCENTRICITY":0.0002344,"INCLINATION":97.4201,"RA_OF_ASC_NODE":190.0603,"ARG_OF_PERICENTER":171.0215,"MEAN_ANOMALY":189.1062,"EPHEMERIS_TYPE":0,"CLASSIFICATION_TYPE":"U","NORAD_CAT_ID":66710,"ELEMENT_SET_NO":999,"REV_AT_EPOCH":2244,"BSTAR":0.00029075,"MEAN_MOTION_DOT":6.089e-5,"MEAN_MOTION_DDOT":0},{"OBJECT_NAME":"FLOCK 4H-8","OBJECT_ID":"2025-276AX","EPOCH":"2026-04-25T18:37:47.625024","MEAN_MOTION":15.19485671,"ECCENTRICITY":0.0003715,"INCLINATION":97.4241,"RA_OF_ASC_NODE":190.2818,"ARG_OF_PERICENTER":173.2741,"MEAN_ANOMALY":186.8545,"EPHEMERIS_TYPE":0,"CLASSIFICATION_TYPE":"U","NORAD_CAT_ID":66711,"ELEMENT_SET_NO":999,"REV_AT_EPOCH":2246,"BSTAR":0.00030654,"MEAN_MOTION_DOT":6.439e-5,"MEAN_MOTION_DDOT":0},{"OBJECT_NAME":"FLOCK 4H-9","OBJECT_ID":"2025-276AY","EPOCH":"2026-04-25T17:45:26.767296","MEAN_MOTION":15.19781087,"ECCENTRICITY":0.0004391,"INCLINATION":97.4233,"RA_OF_ASC_NODE":190.3149,"ARG_OF_PERICENTER":144.4533,"MEAN_ANOMALY":215.6996,"EPHEMERIS_TYPE":0,"CLASSIFICATION_TYPE":"U","NORAD_CAT_ID":66712,"ELEMENT_SET_NO":999,"REV_AT_EPOCH":2246,"BSTAR":0.00030254,"MEAN_MOTION_DOT":6.409e-5,"MEAN_MOTION_DDOT":0},{"OBJECT_NAME":"FLOCK 4H-10","OBJECT_ID":"2025-276AZ","EPOCH":"2026-04-25T17:35:30.003360","MEAN_MOTION":15.19211045,"ECCENTRICITY":0.0004988,"INCLINATION":97.4205,"RA_OF_ASC_NODE":190.1163,"ARG_OF_PERICENTER":167.4152,"MEAN_ANOMALY":192.7208,"EPHEMERIS_TYPE":0,"CLASSIFICATION_TYPE":"U","NORAD_CAT_ID":66713,"ELEMENT_SET_NO":999,"REV_AT_EPOCH":2245,"BSTAR":0.00030016,"MEAN_MOTION_DOT":6.254e-5,"MEAN_MOTION_DDOT":0},{"OBJECT_NAME":"FLOCK 4H-11","OBJECT_ID":"2025-276BA","EPOCH":"2026-04-25T18:18:51.757056","MEAN_MOTION":15.21187207,"ECCENTRICITY":0.0003497,"INCLINATION":97.4217,"RA_OF_ASC_NODE":190.4161,"ARG_OF_PERICENTER":172.2023,"MEAN_ANOMALY":187.9268,"EPHEMERIS_TYPE":0,"CLASSIFICATION_TYPE":"U","NORAD_CAT_ID":66714,"ELEMENT_SET_NO":999,"REV_AT_EPOCH":2247,"BSTAR":0.00063474,"MEAN_MOTION_DOT":0.00014101,"MEAN_MOTION_DDOT":0},{"OBJECT_NAME":"FLOCK 4H-12","OBJECT_ID":"2025-276BB","EPOCH":"2026-04-25T17:29:55.387392","MEAN_MOTION":15.19826018,"ECCENTRICITY":0.0003541,"INCLINATION":97.4205,"RA_OF_ASC_NODE":190.2634,"ARG_OF_PERICENTER":128.7367,"MEAN_ANOMALY":231.4184,"EPHEMERIS_TYPE":0,"CLASSIFICATION_TYPE":"U","NORAD_CAT_ID":66715,"ELEMENT_SET_NO":999,"REV_AT_EPOCH":2277,"BSTAR":0.00027996,"MEAN_MOTION_DOT":5.933e-5,"MEAN_MOTION_DDOT":0},{"OBJECT_NAME":"FLOCK 4H-13","OBJECT_ID":"2025-276BC","EPOCH":"2026-04-25T17:01:58.371168","MEAN_MOTION":15.20093608,"ECCENTRICITY":0.0002855,"INCLINATION":97.4238,"RA_OF_ASC_NODE":190.3601,"ARG_OF_PERICENTER":112.291,"MEAN_ANOMALY":247.8628,"EPHEMERIS_TYPE":0,"CLASSIFICATION_TYPE":"U","NORAD_CAT_ID":66716,"ELEMENT_SET_NO":999,"REV_AT_EPOCH":2246,"BSTAR":0.00029002,"MEAN_MOTION_DOT":6.197e-5,"MEAN_MOTION_DDOT":0},{"OBJECT_NAME":"FLOCK 4H-14","OBJECT_ID":"2025-276BD","EPOCH":"2026-04-25T18:07:12.551232","MEAN_MOTION":15.20395709,"ECCENTRICITY":0.0002508,"INCLINATION":97.4221,"RA_OF_ASC_NODE":190.424,"ARG_OF_PERICENTER":109.7924,"MEAN_ANOMALY":250.3582,"EPHEMERIS_TYPE":0,"CLASSIFICATION_TYPE":"U","NORAD_CAT_ID":66717,"ELEMENT_SET_NO":999,"REV_AT_EPOCH":2172,"BSTAR":0.00032681,"MEAN_MOTION_DOT":7.054e-5,"MEAN_MOTION_DDOT":0},{"OBJECT_NAME":"FLOCK 4H-15","OBJECT_ID":"2025-276BE","EPOCH":"2026-04-25T18:04:22.156608","MEAN_MOTION":15.18960895,"ECCENTRICITY":0.0004451,"INCLINATION":97.4235,"RA_OF_ASC_NODE":190.1435,"ARG_OF_PERICENTER":178.6788,"MEAN_ANOMALY":181.4459,"EPHEMERIS_TYPE":0,"CLASSIFICATION_TYPE":"U","NORAD_CAT_ID":66718,"ELEMENT_SET_NO":999,"REV_AT_EPOCH":2245,"BSTAR":0.00032625,"MEAN_MOTION_DOT":6.755e-5,"MEAN_MOTION_DDOT":0},{"OBJECT_NAME":"FLOCK 4H-16","OBJECT_ID":"2025-276BF","EPOCH":"2026-04-25T20:52:53.558112","MEAN_MOTION":15.19162109,"ECCENTRICITY":0.0004802,"INCLINATION":97.4252,"RA_OF_ASC_NODE":190.3233,"ARG_OF_PERICENTER":167.3898,"MEAN_ANOMALY":192.7458,"EPHEMERIS_TYPE":0,"CLASSIFICATION_TYPE":"U","NORAD_CAT_ID":66719,"ELEMENT_SET_NO":999,"REV_AT_EPOCH":2247,"BSTAR":0.00036904,"MEAN_MOTION_DOT":7.695e-5,"MEAN_MOTION_DDOT":0}]
