PELICAN-6               
1 66703U 25276AP  26115.85264316  .00006956  00000+0  25074-3 0  9990
2 66703  97.4157 191.1810 0002784  62.6524 297.4999 15.28855711 22538
FLOCK 4H-1              
1 66704U 25276AQ  26115.78723730  .00005885  00000+0  27675-3 0  9992
2 66704  97.4192 190.3207 0003489 123.6076 236.5492 15.19945082 22478
FLOCK 4H-2              
1 66705U 25276AR  26115.77464487  .00006129  00000+0  28599-3 0  9991
2 66705  97.4189 190.3296 0002665 121.4533 238.6963 15.20204271 22478
FLOCK 4H-3              
1 66706U 25276AS  26115.78424269  .00007510  00000+0  35851-3 0  9991
2 66706  97.4256 190.2973 0004528 164.1422 195.9956 15.19330122 22465
FLOCK 4H-4              
1 66707U 25276AT  26115.74235719  .00006589  00000+0  31716-3 0  9999
2 66707  97.4241 190.1690 0005090 167.4430 192.6932 15.19086807 22450
FLOCK 4H-5              
1 66708U 25276AU  26115.71639773  .00006210  00000+0  29147-3 0  9991
2 66708  97.4193 190.2669 0002219 116.5069 243.6394 15.19996224 22460
FLOCK 4H-6              
1 66709U 25276AV  26115.67975080  .00006567  00000+0  31094-3 0  9990
2 66709  97.4241 190.2595 0004355 138.6207 221.5358 15.19661356 22454
FLOCK 4H-7              
1 66710U 25276AW  26115.64867066  .00006089  00000+0  29075-3 0  9998
2 66710  97.4201 190.0603 0002344 171.0215 189.1062 15.19405258 22443
FLOCK 4H-8              
1 66711U 25276AX  26115.77624566  .00006439  00000+0  30654-3 0  9993
2 66711  97.4241 190.2818 0003715 173.2741 186.8545 15.19485671 22468
FLOCK 4H-9              
1 66712U 25276AY  26115.73989314  .00006409  00000+0  30254-3 0  9998
2 66712  97.4233 190.3149 0004391 144.4533 215.6996 15.19781087 22469
FLOCK 4H-10             
1 66713U 25276AZ  26115.73298615  .00006254  00000+0  30016-3 0  9990
2 66713  97.4205 190.1163 0004988 167.4152 192.7208 15.19211045 22459
FLOCK 4H-11             
1 66714U 25276BA  26115.76309904  .00014101  00000+0  63474-3 0  9992
2 66714  97.4217 190.4161 0003497 172.2023 187.9268 15.21187207 22478
FLOCK 4H-12             
1 66715U 25276BB  26115.72911328  .00005933  00000+0  27996-3 0  9990
2 66715  97.4205 190.2634 0003541 128.7367 231.4184 15.19826018 22778
FLOCK 4H-13             
1 66716U 25276BC  26115.70970337  .00006197  00000+0  29002-3 0  9997
2 66716  97.4238 190.3601 0002855 112.2910 247.8628 15.20093608 22462
FLOCK 4H-14             
1 66717U 25276BD  26115.75500638  .00007054  00000+0  32681-3 0  9996
2 66717  97.4221 190.4240 0002508 109.7924 250.3582 15.20395709 21729
FLOCK 4H-15             
1 66718U 25276BE  26115.75303422  .00006755  00000+0  32625-3 0  9994
2 66718  97.4235 190.1435 0004451 178.6788 181.4459 15.18960895 22459
FLOCK 4H-16             
1 66719U 25276BF  26115.87006433  .00007695  00000+0  36904-3 0  9998
2 66719  97.4252 190.3233 0004802 167.3898 192.7458 15.19162109 22473
